CCSDS_OMM_VERS = 2.0
CREATION_DATE  = 
ORIGINATOR     = 

OBJECT_NAME    = ISS OBJECT XY
OBJECT_ID      = 1998-067XY
CENTER_NAME    = EARTH
REF_FRAME      = TEME
TIME_SYSTEM    = UTC
MEAN_ELEMENT_THEORY = SGP/SGP4

EPOCH          = 2026-03-12T23:14:01.159872
MEAN_MOTION    = 15.64357529
ECCENTRICITY   = .0003327
INCLINATION    = 51.6271
RA_OF_ASC_NODE = 50.5463
ARG_OF_PERICENTER = 107.6228
MEAN_ANOMALY   = 252.5131

EPHEMERIS_TYPE = 0
CLASSIFICATION_TYPE = U
NORAD_CAT_ID   = 66912
ELEMENT_SET_NO = 999
REV_AT_EPOCH   = 1566
BSTAR          = .10318E-2
MEAN_MOTION_DOT = .1015E-2
MEAN_MOTION_DDOT = 0

CCSDS_OMM_VERS = 2.0
CREATION_DATE  = 
ORIGINATOR     = 

OBJECT_NAME    = KNACKSAT-2
OBJECT_ID      = 1998-067XZ
CENTER_NAME    = EARTH
REF_FRAME      = TEME
TIME_SYSTEM    = UTC
MEAN_ELEMENT_THEORY = SGP/SGP4

EPOCH          = 2026-03-12T13:27:39.676896
MEAN_MOTION    = 15.52078501
ECCENTRICITY   = .000951
INCLINATION    = 51.6314
RA_OF_ASC_NODE = 57.5801
ARG_OF_PERICENTER = 196.2104
MEAN_ANOMALY   = 163.8583

EPHEMERIS_TYPE = 0
CLASSIFICATION_TYPE = U
NORAD_CAT_ID   = 67683
ELEMENT_SET_NO = 999
REV_AT_EPOCH   = 523
BSTAR          = .6904E-3
MEAN_MOTION_DOT = .4226E-3
MEAN_MOTION_DDOT = 0

CCSDS_OMM_VERS = 2.0
CREATION_DATE  = 
ORIGINATOR     = 

OBJECT_NAME    = GXIBA-1
OBJECT_ID      = 1998-067YA
CENTER_NAME    = EARTH
REF_FRAME      = TEME
TIME_SYSTEM    = UTC
MEAN_ELEMENT_THEORY = SGP/SGP4

EPOCH          = 2026-03-12T08:03:46.954368
MEAN_MOTION    = 15.54791235
ECCENTRICITY   = .001132
INCLINATION    = 51.6305
RA_OF_ASC_NODE = 58.3289
ARG_OF_PERICENTER = 184.6561
MEAN_ANOMALY   = 175.4326

EPHEMERIS_TYPE = 0
CLASSIFICATION_TYPE = U
NORAD_CAT_ID   = 67684
ELEMENT_SET_NO = 999
REV_AT_EPOCH   = 520
BSTAR          = .12676E-2
MEAN_MOTION_DOT = .86646E-3
MEAN_MOTION_DDOT = 0

CCSDS_OMM_VERS = 2.0
CREATION_DATE  = 
ORIGINATOR     = 

OBJECT_NAME    = CORAL
OBJECT_ID      = 1998-067YB
CENTER_NAME    = EARTH
REF_FRAME      = TEME
TIME_SYSTEM    = UTC
MEAN_ELEMENT_THEORY = SGP/SGP4

EPOCH          = 2026-03-12T08:42:11.226816
MEAN_MOTION    = 15.52456287
ECCENTRICITY   = .0011413
INCLINATION    = 51.6310
RA_OF_ASC_NODE = 58.5071
ARG_OF_PERICENTER = 191.9545
MEAN_ANOMALY   = 168.1176

EPHEMERIS_TYPE = 0
CLASSIFICATION_TYPE = U
NORAD_CAT_ID   = 67685
ELEMENT_SET_NO = 999
REV_AT_EPOCH   = 520
BSTAR          = .79543E-3
MEAN_MOTION_DOT = .49518E-3
MEAN_MOTION_DDOT = 0

CCSDS_OMM_VERS = 2.0
CREATION_DATE  = 
ORIGINATOR     = 

OBJECT_NAME    = ISS OBJECT YC
OBJECT_ID      = 1998-067YC
CENTER_NAME    = EARTH
REF_FRAME      = TEME
TIME_SYSTEM    = UTC
MEAN_ELEMENT_THEORY = SGP/SGP4

EPOCH          = 2026-03-12T05:27:31.036320
MEAN_MOTION    = 15.53033070
ECCENTRICITY   = .0008121
INCLINATION    = 51.6318
RA_OF_ASC_NODE = 59.1061
ARG_OF_PERICENTER = 159.6102
MEAN_ANOMALY   = 200.5214

EPHEMERIS_TYPE = 0
CLASSIFICATION_TYPE = U
NORAD_CAT_ID   = 67686
ELEMENT_SET_NO = 999
REV_AT_EPOCH   = 518
BSTAR          = .894E-3
MEAN_MOTION_DOT = .56872E-3
MEAN_MOTION_DDOT = 0

CCSDS_OMM_VERS = 2.0
CREATION_DATE  = 
ORIGINATOR     = 

OBJECT_NAME    = LEOPARD
OBJECT_ID      = 1998-067YD
CENTER_NAME    = EARTH
REF_FRAME      = TEME
TIME_SYSTEM    = UTC
MEAN_ELEMENT_THEORY = SGP/SGP4

EPOCH          = 2026-03-12T08:45:41.128704
MEAN_MOTION    = 15.52253755
ECCENTRICITY   = .000802
INCLINATION    = 51.6322
RA_OF_ASC_NODE = 58.5246
ARG_OF_PERICENTER = 163.8999
MEAN_ANOMALY   = 196.2247

EPHEMERIS_TYPE = 0
CLASSIFICATION_TYPE = U
NORAD_CAT_ID   = 67687
ELEMENT_SET_NO = 999
REV_AT_EPOCH   = 512
BSTAR          = .74214E-3
MEAN_MOTION_DOT = .45748E-3
MEAN_MOTION_DDOT = 0

CCSDS_OMM_VERS = 2.0
CREATION_DATE  = 
ORIGINATOR     = 

OBJECT_NAME    = ISS OBJECT YE
OBJECT_ID      = 1998-067YE
CENTER_NAME    = EARTH
REF_FRAME      = TEME
TIME_SYSTEM    = UTC
MEAN_ELEMENT_THEORY = SGP/SGP4

EPOCH          = 2026-03-12T22:31:08.857344
MEAN_MOTION    = 15.52834307
ECCENTRICITY   = .0007968
INCLINATION    = 51.6314
RA_OF_ASC_NODE = 55.6037
ARG_OF_PERICENTER = 162.5532
MEAN_ANOMALY   = 197.5733

EPHEMERIS_TYPE = 0
CLASSIFICATION_TYPE = U
NORAD_CAT_ID   = 67688
ELEMENT_SET_NO = 999
REV_AT_EPOCH   = 521
BSTAR          = .84072E-3
MEAN_MOTION_DOT = .53041E-3
MEAN_MOTION_DDOT = 0

CCSDS_OMM_VERS = 2.0
CREATION_DATE  = 
ORIGINATOR     = 

OBJECT_NAME    = CREW DRAGON 12
OBJECT_ID      = 2026-031A
CENTER_NAME    = EARTH
REF_FRAME      = TEME
TIME_SYSTEM    = UTC
MEAN_ELEMENT_THEORY = SGP/SGP4

EPOCH          = 2026-03-12T20:51:23.156928
MEAN_MOTION    = 15.48614629
ECCENTRICITY   = .0007924
INCLINATION    = 51.6324
RA_OF_ASC_NODE = 56.6367
ARG_OF_PERICENTER = 186.1410
MEAN_ANOMALY   = 173.9482

EPHEMERIS_TYPE = 0
CLASSIFICATION_TYPE = U
NORAD_CAT_ID   = 67796
ELEMENT_SET_NO = 999
REV_AT_EPOCH   = 55672
BSTAR          = .21655E-3
MEAN_MOTION_DOT = .11348E-3
MEAN_MOTION_DDOT = 0

