ISS OBJECT XY           
1 66912U 98067XY  26071.96806898  .00101500  00000+0  10318-2 0  9995
2 66912  51.6271  50.5463 0003327 107.6228 252.5131 15.64357529 15666
KNACKSAT-2              
1 67683U 98067XZ  26071.56087589  .00042260  00000+0  69040-3 0  9999
2 67683  51.6314  57.5801 0009510 196.2104 163.8583 15.52078501  5234
GXIBA-1                 
1 67684U 98067YA  26071.33596012  .00086646  00000+0  12676-2 0  9999
2 67684  51.6305  58.3289 0011320 184.6561 175.4326 15.54791235  5203
CORAL                   
1 67685U 98067YB  26071.36262994  .00049518  00000+0  79543-3 0  9996
2 67685  51.6310  58.5071 0011413 191.9545 168.1176 15.52456287  5202
ISS OBJECT YC           
1 67686U 98067YC  26071.22744255  .00056872  00000+0  89400-3 0  9991
2 67686  51.6318  59.1061 0008121 159.6102 200.5214 15.53033070  5182
LEOPARD                 
1 67687U 98067YD  26071.36505936  .00045748  00000+0  74214-3 0  9995
2 67687  51.6322  58.5246 0008020 163.8999 196.2247 15.52253755  5129
ISS OBJECT YE           
1 67688U 98067YE  26071.93829696  .00053041  00000+0  84072-3 0  9999
2 67688  51.6314  55.6037 0007968 162.5532 197.5733 15.52834307  5218
CREW DRAGON 12          
1 67796U 26031A   26071.86901802  .00011348  00000+0  21655-3 0  9995
2 67796  51.6324  56.6367 0007924 186.1410 173.9482 15.48614629556729
